IRIDIUM 106             
1 41917U 17003A   24069.75711107  .00000443  00000+0  15094-3 0  9995
2 41917  86.3912  75.1530 0002623  91.7548 268.3948 14.34217425374323
IRIDIUM 103             
1 41918U 17003B   24070.51187798  .00000165  00000+0  51936-4 0  9992
2 41918  86.3912  74.7391 0002044  98.1842 261.9586 14.34217149374464
IRIDIUM 109             
1 41919U 17003C   24069.75076776  .00000046  00000+0  94985-5 0  9990
2 41919  86.3913  75.1035 0002035  90.0596 270.0833 14.34216033374314
IRIDIUM 102             
1 41920U 17003D   24070.48650852  .00000046  00000+0  92267-5 0  9998
2 41920  86.3912  74.7366 0002128  88.1766 271.9673 14.34218076374509
IRIDIUM 105             
1 41921U 17003E   24069.89910005  .00000464  00000+0  15874-3 0  9992
2 41921  86.3967  43.3873 0002238  88.0823 272.0629 14.34219014376272
IRIDIUM 104             
1 41922U 17003F   24070.08058095  .00000091  00000+0  25329-4 0  9991
2 41922  86.3913  74.9365 0002030  92.1520 267.9908 14.34218281374434
IRIDIUM 114             
1 41923U 17003G   24069.73808227  .00000285  00000+0  94631-4 0  9999
2 41923  86.3913  75.0662 0002533  90.3245 269.8241 14.34217364374363
IRIDIUM 108             
1 41924U 17003H   24070.18496358  .00000446  00000+0  15206-3 0  9998
2 41924  86.3962  43.1988 0002492  87.6808 272.4673 14.34224152376301
